SWARM A                 
1 39452U 13067B   26165.50969896  .00010159  00000+0  17494-3 0  9995
2 39452  87.3334  57.2370 0003019  94.8387 265.3218 15.50907710705834
SWARM C                 
1 39453U 13067C   26165.50958396  .00009918  00000+0  17079-3 0  9999
2 39453  87.3333  55.8181 0003015  95.2617 264.8988 15.50904993705798
BRITE-CA1 (TORONTO)     
1 40020U 14033L   26165.32000206  .00000628  00000+0  10220-3 0  9993
2 40020  97.9735 294.3008 0077275 286.3637  72.9085 14.72673070641792
OCO 2                   
1 40059U 14035A   26165.47736688  .00000341  00000+0  85740-4 0  9995
2 40059  98.2018 106.8117 0001502  86.3508 273.7862 14.57109226635657
BRITE-PL2 (HEWELIUSZ)   
1 40119U 14049B   26165.56132921  .00001392  00000+0  13390-3 0  9995
2 40119  97.9095 277.5411 0015205 116.2621 244.0164 14.94585543641050
MMS 1                   
1 40482U 15011A   26165.58335647 -.00000521  00000+0  00000+0 0  9994
2 40482  72.1511 348.8031 8321027 167.3217  33.0135  0.28407077  1397
MMS 2                   
1 40483U 15011B   26165.58335647 -.00000521  00000+0  00000+0 0  9995
2 40483  72.1513 348.8054 8321809 167.3273  33.0021  0.28407123  1391
MMS 3                   
1 40484U 15011C   26165.58335647 -.00000521  00000+0  00000+0 0  9996
2 40484  72.1544 348.8099 8320990 167.3218  32.9978  0.28407102  1390
MMS 4                   
1 40485U 15011D   26165.58335647 -.00000521  00000+0  00000+0 0  9997
2 40485  72.1504 348.8056 8320598 167.3296  32.9863  0.28407129  1392
ASTROSAT                
1 40930U 15052A   26165.46780736  .00001457  00000+0  95708-4 0  9999
2 40930   5.9956 174.9285 0007983 352.0417   7.9584 14.82503124579427
DAMPE                   
1 41173U 15078A   26165.48831416  .00001398  00000+0  49510-4 0  9995
2 41173  97.4553 170.9420 0013815  85.4478 274.8340 15.30779710584137
PISAT                   
1 41784U 16059B   26165.48749855  .00000761  00000+0  13720-3 0  9994
2 41784  97.8179 166.0563 0028161 211.6236 148.3279 14.68979339519348
HXMT (HUIYAN)           
1 42758U 17034A   26165.50319966  .00003191  00000+0  16189-3 0  9991
2 42758  43.0126 197.9867 0030328 129.5946 230.7587 15.18464312497257
FLYING LAPTOP           
1 42831U 17042G   26165.51920319  .00003361  00000+0  26585-3 0  9993
2 42831  97.4668 321.1545 0019518 130.4890 229.8040 15.01130916486055
ZHANGHENG 1-01 (CSES-1) 
1 43194U 18015C   26165.50711727  .00006211  00000+0  28413-3 0  9996
2 43194  97.6860 331.1114 0017014 276.4915  83.4383 15.20781702464231
SALSAT                  
1 46495U 20068K   26165.46369228  .00007647  00000+0  26787-3 0  9990
2 46495  97.8844 168.3625 0008244 319.7381  40.3247 15.29766434314949
IXPE                    
1 49954U 21121A   26165.50003471  .00010220  00000+0  55121-3 0  9999
2 49954   0.2313 338.0802 0007536  36.8729  27.1207 15.10231284  5924
SMILE                   
1 69123U 26109A   26144.65318427 -.00001976  00000+0 -42379-3 0  9994
2 69123  70.0007 229.2745 0009123 259.5159 100.4951 14.57062785   802
